{
  "type": "FeatureCollection",
  "features": [
    {
      "type": "Feature",
      "properties": {
        "norad_id": 41866,
        "name": "GOES 16",
        "group": "weather",
        "lat": 0.0705698069274801,
        "lon": 161.26525672396468,
        "alt_km": 35789.48325339304,
        "timestamp": "2025-12-23T11:34:47.828525+00:00",
        "meta_object_name": "GOES 16",
        "meta_object_id": "2016-071A",
        "meta_epoch": "2025-12-23T02:21:48.282336",
        "meta_mean_motion": 1.0027192,
        "meta_eccentricity": 0.000308,
        "meta_inclination": 0.073,
        "meta_ra_of_asc_node": 102.8001,
        "meta_arg_of_pericenter": 163.7071,
        "meta_mean_anomaly": 116.172,
        "meta_ephemeris_type": 0,
        "meta_classification_type": "U",
        "meta_norad_cat_id": 41866,
        "meta_element_set_no": 999,
        "meta_rev_at_epoch": 3333,
        "meta_bstar": 0,
        "meta_mean_motion_dot": -7e-07,
        "meta_mean_motion_ddot": 0,
        "tle_line1": "1 41866U 16071A   25357.09847549 -.00000070  00000+0  00000+0 0  9994",
        "tle_line2": "2 41866   0.0730 102.8001 0003080 163.7071 116.1720  1.00271920 33337"
      },
      "geometry": {
        "type": "Point",
        "coordinates": [
          161.26525672396468,
          0.0705698069274801
        ]
      }
    },
    {
      "type": "Feature",
      "properties": {
        "norad_id": 41882,
        "name": "FENGYUN 4A",
        "group": "weather",
        "lat": -1.4834639894468393,
        "lon": 29.651766141717562,
        "alt_km": 35806.94154098477,
        "timestamp": "2025-12-23T11:34:47.828536+00:00",
        "meta_object_name": "FENGYUN 4A",
        "meta_object_id": "2016-077A",
        "meta_epoch": "2025-12-23T01:29:21.571008",
        "meta_mean_motion": 1.00264255,
        "meta_eccentricity": 0.000457,
        "meta_inclination": 1.8735,
        "meta_ra_of_asc_node": 82.3034,
        "meta_arg_of_pericenter": 143.2993,
        "meta_mean_anomaly": 12.262,
        "meta_ephemeris_type": 0,
        "meta_classification_type": "U",
        "meta_norad_cat_id": 41882,
        "meta_element_set_no": 999,
        "meta_rev_at_epoch": 3316,
        "meta_bstar": 0,
        "meta_mean_motion_dot": -3.37e-06,
        "meta_mean_motion_ddot": 0,
        "tle_line1": "1 41882U 16077A   25357.06205522 -.00000337  00000+0  00000+0 0  9990",
        "tle_line2": "2 41882   1.8735  82.3034 0004570 143.2993  12.2620  1.00264255 33167"
      },
      "geometry": {
        "type": "Point",
        "coordinates": [
          29.651766141717562,
          -1.4834639894468393
        ]
      }
    },
    {
      "type": "Feature",
      "properties": {
        "norad_id": 41884,
        "name": "CYGFM05",
        "group": "weather",
        "lat": -13.409140659794858,
        "lon": 176.88846170495788,
        "alt_km": 420.81598569697144,
        "timestamp": "2025-12-23T11:34:47.828546+00:00",
        "meta_object_name": "CYGFM05",
        "meta_object_id": "2016-078A",
        "meta_epoch": "2025-12-23T01:24:58.927104",
        "meta_mean_motion": 15.48005421,
        "meta_eccentricity": 0.0010754,
        "meta_inclination": 34.9607,
        "meta_ra_of_asc_node": 339.7053,
        "meta_arg_of_pericenter": 272.8305,
        "meta_mean_anomaly": 87.1186,
        "meta_ephemeris_type": 0,
        "meta_classification_type": "U",
        "meta_norad_cat_id": 41884,
        "meta_element_set_no": 999,
        "meta_rev_at_epoch": 50136,
        "meta_bstar": 0.00038507,
        "meta_mean_motion_dot": 0.00020803,
        "meta_mean_motion_ddot": 0,
        "tle_line1": "1 41884U 16078A   25357.05901536  .00020803  00000+0  38507-3 0  9996",
        "tle_line2": "2 41884  34.9607 339.7053 0010754 272.8305  87.1186 15.48005421501366"
      },
      "geometry": {
        "type": "Point",
        "coordinates": [
          176.88846170495788,
          -13.409140659794858
        ]
      }
    },
    {
      "type": "Feature",
      "properties": {
        "norad_id": 41885,
        "name": "CYGFM04",
        "group": "weather",
        "lat": -5.7637412686381335,
        "lon": 139.7152282033503,
        "alt_km": 416.26882751045105,
        "timestamp": "2025-12-23T11:34:47.828556+00:00",
        "meta_object_name": "CYGFM04",
        "meta_object_id": "2016-078B",
        "meta_epoch": "2025-12-22T22:24:14.341248",
        "meta_mean_motion": 15.5077675,
        "meta_eccentricity": 0.0009475,
        "meta_inclination": 34.9355,
        "meta_ra_of_asc_node": 315.0052,
        "meta_arg_of_pericenter": 295.7318,
        "meta_mean_anomaly": 64.2426,
        "meta_ephemeris_type": 0,
        "meta_classification_type": "U",
        "meta_norad_cat_id": 41885,
        "meta_element_set_no": 999,
        "meta_rev_at_epoch": 50152,
        "meta_bstar": 0.0004091,
        "meta_mean_motion_dot": 0.00024384,
        "meta_mean_motion_ddot": 0,
        "tle_line1": "1 41885U 16078B   25356.93349932  .00024384  00000+0  40910-3 0  9998",
        "tle_line2": "2 41885  34.9355 315.0052 0009475 295.7318  64.2426 15.50776750501523"
      },
      "geometry": {
        "type": "Point",
        "coordinates": [
          139.7152282033503,
          -5.7637412686381335
        ]
      }
    },
    {
      "type": "Feature",
      "properties": {
        "norad_id": 41886,
        "name": "CYGFM02",
        "group": "weather",
        "lat": -33.94480966605657,
        "lon": -155.83896729969698,
        "alt_km": 407.0029376424609,
        "timestamp": "2025-12-23T11:34:47.828566+00:00",
        "meta_object_name": "CYGFM02",
        "meta_object_id": "2016-078C",
        "meta_epoch": "2025-12-23T04:18:07.828128",
        "meta_mean_motion": 15.52200124,
        "meta_eccentricity": 0.0011065,
        "meta_inclination": 34.9444,
        "meta_ra_of_asc_node": 311.5816,
        "meta_arg_of_pericenter": 299.4074,
        "meta_mean_anomaly": 60.5544,
        "meta_ephemeris_type": 0,
        "meta_classification_type": "U",
        "meta_norad_cat_id": 41886,
        "meta_element_set_no": 999,
        "meta_rev_at_epoch": 50169,
        "meta_bstar": 0.00040177,
        "meta_mean_motion_dot": 0.00025224,
        "meta_mean_motion_ddot": 0,
        "tle_line1": "1 41886U 16078C   25357.17925727  .00025224  00000+0  40177-3 0  9997",
        "tle_line2": "2 41886  34.9444 311.5816 0011065 299.4074  60.5544 15.52200124501697"
      },
      "geometry": {
        "type": "Point",
        "coordinates": [
          -155.83896729969698,
          -33.94480966605657
        ]
      }
    },
    {
      "type": "Feature",
      "properties": {
        "norad_id": 41887,
        "name": "CYGFM01",
        "group": "weather",
        "lat": -34.91928011942547,
        "lon": -109.66069923809687,
        "alt_km": 415.7770161231001,
        "timestamp": "2025-12-23T11:34:47.828576+00:00",
        "meta_object_name": "CYGFM01",
        "meta_object_id": "2016-078D",
        "meta_epoch": "2025-12-23T02:40:46.401024",
        "meta_mean_motion": 15.48597087,
        "meta_eccentricity": 0.0010478,
        "meta_inclination": 34.9437,
        "meta_ra_of_asc_node": 341.6373,
        "meta_arg_of_pericenter": 265.68,
        "meta_mean_anomaly": 94.2725,
        "meta_ephemeris_type": 0,
        "meta_classification_type": "U",
        "meta_norad_cat_id": 41887,
        "meta_element_set_no": 999,
        "meta_rev_at_epoch": 50131,
        "meta_bstar": 0.0003838,
        "meta_mean_motion_dot": 0.00021169,
        "meta_mean_motion_ddot": 0,
        "tle_line1": "1 41887U 16078D   25357.11164816  .00021169  00000+0  38380-3 0  9993",
        "tle_line2": "2 41887  34.9437 341.6373 0010478 265.6800  94.2725 15.48597087501317"
      },
      "geometry": {
        "type": "Point",
        "coordinates": [
          -109.66069923809687,
          -34.91928011942547
        ]
      }
    },
    {
      "type": "Feature",
      "properties": {
        "norad_id": 41888,
        "name": "CYGFM08",
        "group": "weather",
        "lat": 3.8339764473921205,
        "lon": -32.4175158257883,
        "alt_km": 413.4787639189399,
        "timestamp": "2025-12-23T11:34:47.828586+00:00",
        "meta_object_name": "CYGFM08",
        "meta_object_id": "2016-078E",
        "meta_epoch": "2025-12-23T02:16:31.996128",
        "meta_mean_motion": 15.498304,
        "meta_eccentricity": 0.0011784,
        "meta_inclination": 34.9466,
        "meta_ra_of_asc_node": 324.6167,
        "meta_arg_of_pericenter": 288.0166,
        "meta_mean_anomaly": 71.9272,
        "meta_ephemeris_type": 0,
        "meta_classification_type": "U",
        "meta_norad_cat_id": 41888,
        "meta_element_set_no": 999,
        "meta_rev_at_epoch": 50154,
        "meta_bstar": 0.00040023,
        "meta_mean_motion_dot": 0.00023082,
        "meta_mean_motion_ddot": 0,
        "tle_line1": "1 41888U 16078E   25357.09481477  .00023082  00000+0  40023-3 0  9999",
        "tle_line2": "2 41888  34.9466 324.6167 0011784 288.0166  71.9272 15.49830400501541"
      },
      "geometry": {
        "type": "Point",
        "coordinates": [
          -32.4175158257883,
          3.8339764473921205
        ]
      }
    }
  ]
}